0 COSMOS 970 DEB
1 10879U 77121AA  13283.67540375  .00000647  00000-0  65187-3 0  8702
2 10879 065.8294 036.7843 0133550 253.1860 105.4978 13.73394663788084
0 COSMOS 970 DEB
1 10879U 77121AA  13286.74975847  .00000508  00000-0  59292-3 0  8705
2 10879 065.8306 029.2002 0133603 252.0422 185.4540 13.73399290788504
0 COSMOS 970 DEB
1 10879U 77121AA  13289.51971948  .00000481  00000-0  56609-3 0  8711
2 10879 065.8305 022.3725 0133579 250.8052 200.6887 13.73403291788888
0 COSMOS 970 DEB
1 10879U 77121AA  13290.52041839  .00000610  00000-0  61376-3 0  8734
2 10879 065.8299 019.9116 0133584 250.1157 108.5919 13.73403663789023
0 COSMOS 970 DEB
1 10879U 77121AA  13292.13836354  .00000491  00000-0  57660-3 0  8724
2 10879 065.8303 015.9174 0133532 249.6340 187.8154 13.73405867789242
0 COSMOS 970 DEB
1 10879U 77121AA  13294.17955913  .00000452  00000-0  53726-3 0  8730
2 10879 065.8301 010.8857 0133515 248.7315 199.9233 13.73408691789526
0 COSMOS 970 DEB
1 10879U 77121AA  13296.20700372  .00000446  00000-0  53117-3 0  8741
2 10879 065.8300 005.8878 0133501 247.8263 144.0714 13.73411157789806
